$$SOE
2459580.500000000, A.D. 2022-Jan-01 00:00:00.0000, 2.552232920527932E+08, 4.968170061405729E+07, 2.911630995232145E+07,
2459587.500000000, A.D. 2022-Jan-08 00:00:00.0000, 2.512044686465938E+08, 6.266212723278563E+07, 3.337366777822600E+07,
2459594.500000000, A.D. 2022-Jan-15 00:00:00.0000, 2.465003750780983E+08, 7.547148629286100E+07, 3.753995240890662E+07,
2459601.500000000, A.D. 2022-Jan-22 00:00:00.0000, 2.411197357955796E+08, 8.807357958554788E+07, 4.160317246599920E+07,
2459608.500000000, A.D. 2022-Jan-29 00:00:00.0000, 2.350737800692457E+08, 1.004325320560656E+08, 4.555156526796804E+07,
2459615.500000000, A.D. 2022-Feb-05 00:00:00.0000, 2.283762289245388E+08, 1.125129844576489E+08, 4.937366270807374E+07,
2459622.500000000, A.D. 2022-Feb-12 00:00:00.0000, 2.210432634335491E+08, 1.242802858414280E+08, 5.305835617349800E+07,
2459629.500000000, A.D. 2022-Feb-19 00:00:00.0000, 2.130934727829150E+08, 1.357006858007116E+08, 5.659495996585461E+07,
2459636.500000000, A.D. 2022-Feb-26 00:00:00.0000, 2.045477809423211E+08, 1.467415232477961E+08, 5.997327243319627E+07,
2459643.500000000, A.D. 2022-Mar-05 00:00:00.0000, 1.954293526226105E+08, 1.573714086132303E+08, 6.318363391928681E+07,
2459650.500000000, A.D. 2022-Mar-12 00:00:00.0000, 1.857634796620972E+08, 1.675603969785304E+08, 6.621698071745156E+07,
2459657.500000000, A.D. 2022-Mar-19 00:00:00.0000, 1.755774492003256E+08, 1.772801498802751E+08, 6.906489430082735E+07,
2459664.500000000, A.D. 2022-Mar-26 00:00:00.0000, 1.649003952934581E+08, 1.865040836820493E+08, 7.171964518462053E+07,
2459671.500000000, A.D. 2022-Apr-02 00:00:00.0000, 1.537631359748362E+08, 1.952075026071339E+08, 7.417423086652954E+07,
2459678.500000000, A.D. 2022-Apr-09 00:00:00.0000, 1.421979982238688E+08, 2.033677148790288E+08, 7.642240739108041E+07,
2459685.500000000, A.D. 2022-Apr-16 00:00:00.0000, 1.302386335951377E+08, 2.109641313950080E+08, 7.845871425320297E+07,
2459692.500000000, A.D. 2022-Apr-23 00:00:00.0000, 1.179198257715226E+08, 2.179783471240415E+08, 8.027849265931743E+07,
2459699.500000000, A.D. 2022-Apr-30 00:00:00.0000, 1.052772907453983E+08, 2.243942024475981E+08, 8.187789706432107E+07,
2459706.500000000, A.D. 2022-May-07 00:00:00.0000, 9.234747527899854E+07, 2.301978223353102E+08, 8.325389962296125E+07,
2459713.500000000, A.D. 2022-May-14 00:00:00.0000, 7.916735759296696E+07, 2.353776365987289E+08, 8.440428787361890E+07,
2459720.500000000, A.D. 2022-May-21 00:00:00.0000, 6.577425067426254E+07, 2.399243824980556E+08, 8.532765619118738E+07,
2459727.500000000, A.D. 2022-May-28 00:00:00.0000, 5.220560997252726E+07, 2.438310895691507E+08, 8.602339136261055E+07,
2459734.500000000, A.D. 2022-Jun-04 00:00:00.0000, 3.849884780415386E+07, 2.470930474513696E+08, 8.649165270573068E+07,
2459741.500000000, A.D. 2022-Jun-11 00:00:00.0000, 2.469115640884341E+07, 2.497077580318121E+08, 8.673334725397980E+07,
2459748.500000000, A.D. 2022-Jun-18 00:00:00.0000, 1.081934123068905E+07, 2.516748734064348E+08, 8.675010058681819E+07,
2459755.500000000, A.D. 2022-Jun-25 00:00:00.0000, -3.080334293897912E+06, 2.529961212386616E+08, 8.654422391289148E+07,
2459762.500000000, A.D. 2022-Jul-02 00:00:00.0000, -1.697229133933553E+07, 2.536752191435205E+08, 8.611867801454303E+07,
2459769.500000000, A.D. 2022-Jul-09 00:00:00.0000, -3.082176460832923E+07, 2.537177800042719E+08, 8.547703465820090E+07,
2459776.500000000, A.D. 2022-Jul-16 00:00:00.0000, -4.459491720296913E+07, 2.531312110346516E+08, 8.462343617913353E+07,
2459783.500000000, A.D. 2022-Jul-23 00:00:00.0000, -5.825894347470131E+07, 2.519246083607575E+08, 8.356255404013097E+07,
2459790.500000000, A.D. 2022-Jul-30 00:00:00.0000, -7.178215981541795E+07, 2.501086453707985E+08, 8.229954662465425E+07,
2459797.500000000, A.D. 2022-Aug-06 00:00:00.0000, -8.513408006712501E+07, 2.476954569833518E+08, 8.084001649174550E+07,
2459804.500000000, A.D. 2022-Aug-13 00:00:00.0000, -9.828547681698419E+07, 2.446985240144968E+08, 7.918996786954236E+07,
2459811.500000000, A.D. 2022-Aug-20 00:00:00.0000, -1.112084307114131E+08, 2.411325584252201E+08, 7.735576490144134E+07,
2459818.500000000, A.D. 2022-Aug-27 00:00:00.0000, -1.238763684021264E+08, 2.370133898525435E+08, 7.534409092589395E+07,
2459825.500000000, A.D. 2022-Sep-03 00:00:00.0000, -1.362640896456171E+08, 2.323578542930664E+08, 7.316190904516375E+07,
2459832.500000000, A.D. 2022-Sep-10 00:00:00.0000, -1.483477843048663E+08, 2.271836857860863E+08, 7.081642420965613E+07,
2459839.500000000, A.D. 2022-Sep-17 00:00:00.0000, -1.601050401188082E+08, 2.215094117754440E+08, 6.831504700946753E+07,
2459846.500000000, A.D. 2022-Sep-24 00:00:00.0000, -1.715148421026863E+08, 2.153542526637122E+08, 6.566535932904179E+07,
2459853.500000000, A.D. 2022-Oct-01 00:00:00.0000, -1.825575642553311E+08, 2.087380259961368E+08, 6.287508196975804E+07,
2459860.500000000, A.D. 2022-Oct-08 00:00:00.0000, -1.932149540518862E+08, 2.016810561442053E+08, 5.995204432644656E+07,
2459867.500000000, A.D. 2022-Oct-15 00:00:00.0000, -2.034701115072698E+08, 1.942040909215927E+08, 5.690415633675323E+07,
2459874.500000000, A.D. 2022-Oct-22 00:00:00.0000, -2.133074658120359E+08, 1.863282235858316E+08, 5.373938276795927E+07,
2459881.500000000, A.D. 2022-Oct-29 00:00:00.0000, -2.227127478048157E+08, 1.780748176815910E+08, 5.046571937243523E+07,
2459888.500000000, A.D. 2022-Nov-05 00:00:00.0000, -2.316729568907987E+08, 1.694654374210917E+08, 4.709117089109716E+07,
2459895.500000000, A.D. 2022-Nov-12 00:00:00.0000, -2.401763250526948E+08, 1.605217847737157E+08, 4.362373112838349E+07,
2459902.500000000, A.D. 2022-Nov-19 00:00:00.0000, -2.482122792938771E+08, 1.512656421842230E+08, 4.007136501400981E+07,
2459909.500000000, A.D. 2022-Nov-26 00:00:00.0000, -2.557714028029559E+08, 1.417188203475492E+08, 3.644199250723043E+07,
2459916.500000000, A.D. 2022-Dec-03 00:00:00.0000, -2.628453951705287E+08, 1.319031108170975E+08, 3.274347423134076E+07,
2459923.500000000, A.D. 2022-Dec-10 00:00:00.0000, -2.694270320569230E+08, 1.218402432302969E+08, 2.898359873468447E+07,
2459930.500000000, A.D. 2022-Dec-17 00:00:00.0000, -2.755101246785978E+08, 1.115518468749801E+08, 2.517007126945385E+07,
2459937.500000000, A.D. 2022-Dec-24 00:00:00.0000, -2.810894793464280E+08, 1.010594162680057E+08, 2.131050396682589E+07,
2459944.500000000, A.D. 2022-Dec-31 00:00:00.0000, -2.861608569938297E+08, 9.038428058424345E+07, 1.741240727829572E+07,
2459951.500000000, A.D. 2023-Jan-07 00:00:00.0000, -2.907209328238303E+08, 7.954757762574786E+07, 1.348318264576945E+07,
2459958.500000000, A.D. 2023-Jan-14 00:00:00.0000, -2.947672582569270E+08, 6.857023255505410E+07, 9.530116519026004E+06,
2459965.500000000, A.D. 2023-Jan-21 00:00:00.0000, -2.982982260108300E+08, 5.747293795393822E+07, 5.560375420963168E+06,
2459972.500000000, A.D. 2023-Jan-28 00:00:00.0000, -3.013130347930418E+08, 4.627613475962553E+07, 1.581001612189682E+06,
2459979.500000000, A.D. 2023-Feb-04 00:00:00.0000, -3.038116539190649E+08, 3.499999685579313E+07, -2.401090469667012E+06,
2459986.500000000, A.D. 2023-Feb-11 00:00:00.0000, -3.057947897391829E+08, 2.366441887380887E+07, -6.379116933517528E+06,
2459993.500000000, A.D. 2023-Feb-18 00:00:00.0000, -3.072638540160464E+08, 1.228900614768654E+07, -1.034642646539474E+07,
2460000.500000000, A.D. 2023-Feb-25 00:00:00.0000, -3.082209340448003E+08, 8.930664452735335E+05, -1.429650178172876E+07,
2460007.500000000, A.D. 2023-Mar-04 00:00:00.0000, -3.086687644456661E+08, -1.050439671103902E+07, -1.822296058685662E+07,
2460014.500000000, A.D. 2023-Mar-11 00:00:00.0000, -3.086107006173478E+08, -2.188468932786238E+07, -2.211955610673615E+07,
2460021.500000000, A.D. 2023-Mar-18 00:00:00.0000, -3.080506938077165E+08, -3.322943105879867E+07, -2.598017727213448E+07,
2460028.500000000, A.D. 2023-Mar-25 00:00:00.0000, -3.069932675878950E+08, -4.452055837135050E+07, -2.979884863336736E+07,
2460035.500000000, A.D. 2023-Apr-01 00:00:00.0000, -3.054434952803991E+08, -5.574032652576534E+07, -3.356973006641467E+07,
2460042.500000000, A.D. 2023-Apr-08 00:00:00.0000, -3.034069789201357E+08, -6.687130929096187E+07, -3.728711615996401E+07,
2460049.500000000, A.D. 2023-Apr-15 00:00:00.0000, -3.008898320451924E+08, -7.789639765225449E+07, -4.094543520086159E+07,
2460056.500000000, A.D. 2023-Apr-22 00:00:00.0000, -2.978986644756332E+08, -8.879880070772178E+07, -4.453924821451356E+07,
2460063.500000000, A.D. 2023-Apr-29 00:00:00.0000, -2.944405663169318E+08, -9.956204663147049E+07, -4.806324816873714E+07,
2460070.500000000, A.D. 2023-May-06 00:00:00.0000, -2.905230929119419E+08, -1.101699820380455E+08, -5.151225907365949E+07,
2460077.500000000, A.D. 2023-May-13 00:00:00.0000, -2.861542516749312E+08, -1.206067707496384E+08, -5.488123499900469E+07,
2460084.500000000, A.D. 2023-May-20 00:00:00.0000, -2.813424905315124E+08, -1.308568925595220E+08, -5.816525910846442E+07,
2460091.500000000, A.D. 2023-May-27 00:00:00.0000, -2.760966877287644E+08, -1.409051421119173E+08, -6.135954276714967E+07,
2460098.500000000, A.D. 2023-Jun-03 00:00:00.0000, -2.704261429085281E+08, -1.507366279514349E+08, -6.445942475483886E+07,
2460105.500000000, A.D. 2023-Jun-10 00:00:00.0000, -2.643405693610539E+08, -1.603367718291778E+08, -6.746037061028343E+07,
2460112.500000000, A.D. 2023-Jun-17 00:00:00.0000, -2.578500873038814E+08, -1.696913084005849E+08, -7.035797213630795E+07,
2460119.500000000, A.D. 2023-Jun-24 00:00:00.0000, -2.509652178000745E+08, -1.787862853411830E+08, -7.314794710776901E+07,
2460126.500000000, A.D. 2023-Jul-01 00:00:00.0000, -2.436968770045488E+08, -1.876080631374407E+08, -7.582613916077933E+07,
2460133.500000000, A.D. 2023-Jul-08 00:00:00.0000, -2.360563723618392E+08, -1.961433138105648E+08, -7.838851766964018E+07,
2460140.500000000, A.D. 2023-Jul-15 00:00:00.0000, -2.280554019830670E+08, -2.043790214748915E+08, -8.083117775277224E+07,
2460147.500000000, A.D. 2023-Jul-22 00:00:00.0000, -2.197060536309748E+08, -2.123024858322940E+08, -8.315034084031987E+07,
$$EOE